[{"OBJECT_NAME":"STARLINK-30485","OBJECT_ID":"2023-147H","EPOCH":"2026-03-09T22:00:01.999584","MEAN_MOTION":15.26757008,"ECCENTRICITY":0.00017388,"INCLINATION":42.9999,"RA_OF_ASC_NODE":323.8255,"ARG_OF_PERICENTER":290.0372,"MEAN_ANOMALY":78.2448,"EPHEMERIS_TYPE":0,"CLASSIFICATION_TYPE":"U","NORAD_CAT_ID":57920,"ELEMENT_SET_NO":999,"REV_AT_EPOCH":577,"BSTAR":0.0017900753,"MEAN_MOTION_DOT":0.00048096,"MEAN_MOTION_DDOT":0},{"OBJECT_NAME":"OV1-9","OBJECT_ID":"1966-111A","EPOCH":"2026-03-09T00:15:54.647424","MEAN_MOTION":10.39800663,"ECCENTRICITY":0.22726318,"INCLINATION":99.101,"RA_OF_ASC_NODE":280.6949,"ARG_OF_PERICENTER":170.5316,"MEAN_ANOMALY":194.7407,"EPHEMERIS_TYPE":0,"CLASSIFICATION_TYPE":"U","NORAD_CAT_ID":2610,"ELEMENT_SET_NO":999,"REV_AT_EPOCH":22262,"BSTAR":0.0003053363,"MEAN_MOTION_DOT":7.59e-6,"MEAN_MOTION_DDOT":0}]
